start=new Date('2022-10-01T00:00:00.000Z').valueOf();
sats=[{"LAUNCH_DATE":"2021-03-04","MEAN_ELEMENT_THEORY":"SGP4","CLASSIFICATION_TYPE":"U","MEAN_ANOMALY":"306.7965","NORAD_CAT_ID":"47742","APOAPSIS":"548.215","INCLINATION":"53.0542","SEMIMAJOR_AXIS":"6925.413","COUNTRY_CODE":"US","RA_OF_ASC_NODE":"79.6830","GP_ID":"213904377","DECAY_DATE":null,"RCS_SIZE":"LARGE","PERIAPSIS":"546.341","MEAN_MOTION":"15.06379115","EPHEMERIS_TYPE":"0","OBJECT_TYPE":"PAYLOAD","PERIOD":"95.593","OBJECT_ID":"2021-017W","MEAN_MOTION_DDOT":"0.0000000000000","ECCENTRICITY":"0.00013530","ELEMENT_SET_NO":"999","TLE_LINE2":"2 47742  53.0542  79.6830 0001353  53.3148 306.7965 15.06379115 88622","EPOCH":"2022-09-30T18:22:51.436704","TLE_LINE1":"1 47742U 21017W   22273.76587311  .00004346  00000-0  31066-3 0  9995","OBJECT_NAME":"STARLINK-2156","CENTER_NAME":"EARTH","BSTAR":"0.00031066000000","REV_AT_EPOCH":"8862","REF_FRAME":"TEME","ARG_OF_PERICENTER":"53.3148","MEAN_MOTION_DOT":"0.00004346","TIME_SYSTEM":"UTC","SITE":"AFETR","FILE":"3587966"},{"MEAN_ELEMENT_THEORY":"SGP4","LAUNCH_DATE":"2021-03-04","CLASSIFICATION_TYPE":"U","MEAN_ANOMALY":"284.1822","NORAD_CAT_ID":"47743","APOAPSIS":"548.211","INCLINATION":"53.0526","SEMIMAJOR_AXIS":"6925.327","COUNTRY_CODE":"US","RA_OF_ASC_NODE":"79.2734","GP_ID":"213905628","DECAY_DATE":null,"RCS_SIZE":"LARGE","PERIAPSIS":"546.172","MEAN_MOTION":"15.06407117","EPHEMERIS_TYPE":"0","OBJECT_TYPE":"PAYLOAD","PERIOD":"95.592","OBJECT_ID":"2021-017X","MEAN_MOTION_DDOT":"0.0000000000000","ECCENTRICITY":"0.00014720","ELEMENT_SET_NO":"999","TLE_LINE2":"2 47743  53.0526  79.2734 0001472  75.9331 284.1822 15.06407117 88614","EPOCH":"2022-09-30T20:35:29.212800","TLE_LINE1":"1 47743U 21017X   22273.85797700  .00004477  00000-0  31920-3 0  9995","OBJECT_NAME":"STARLINK-2157","CENTER_NAME":"EARTH","BSTAR":"0.00031920000000","REV_AT_EPOCH":"8861","REF_FRAME":"TEME","ARG_OF_PERICENTER":"75.9331","TIME_SYSTEM":"UTC","MEAN_MOTION_DOT":"0.00004477","SITE":"AFETR","FILE":"3587966"},{"TLE_LINE1":"1 47744U 21017Y   22273.83122855  .00001034  00000-0  88276-4 0  9990","OBJECT_NAME":"STARLINK-2158","TLE_LINE2":"2 47744  53.0538  79.3353 0001329  76.7275 283.3862 15.06401159 88630","ELEMENT_SET_NO":"999","EPOCH":"2022-09-30T19:56:58.146720","ECCENTRICITY":"0.00013290","MEAN_MOTION_DDOT":"0.0000000000000","EPHEMERIS_TYPE":"0","OBJECT_ID":"2021-017Y","PERIOD":"95.592","OBJECT_TYPE":"PAYLOAD","MEAN_MOTION_DOT":"0.00001034","TIME_SYSTEM":"UTC","FILE":"3587966","SITE":"AFETR","REV_AT_EPOCH":"8863","ARG_OF_PERICENTER":"76.7275","REF_FRAME":"TEME","BSTAR":"0.00008827600000","CENTER_NAME":"EARTH","APOAPSIS":"548.130","INCLINATION":"53.0538","SEMIMAJOR_AXIS":"6925.345","NORAD_CAT_ID":"47744","CLASSIFICATION_TYPE":"U","LAUNCH_DATE":"2021-03-04","MEAN_ELEMENT_THEORY":"SGP4","MEAN_ANOMALY":"283.3862","PERIAPSIS":"546.290","MEAN_MOTION":"15.06401159","DECAY_DATE":null,"GP_ID":"213905856","RCS_SIZE":"LARGE","RA_OF_ASC_NODE":"79.3353","COUNTRY_CODE":"US"},{"NORAD_CAT_ID":"47745","MEAN_ANOMALY":"269.3263","LAUNCH_DATE":"2021-03-04","MEAN_ELEMENT_THEORY":"SGP4","CLASSIFICATION_TYPE":"U","SEMIMAJOR_AXIS":"6925.341","APOAPSIS":"548.226","INCLINATION":"53.0542","RA_OF_ASC_NODE":"89.5252","COUNTRY_CODE":"US","MEAN_MOTION":"15.06402416","PERIAPSIS":"546.187","RCS_SIZE":"LARGE","GP_ID":"213904627","DECAY_DATE":null,"MEAN_MOTION_DDOT":"0.0000000000000","ECCENTRICITY":"0.00014720","OBJECT_TYPE":"PAYLOAD","PERIOD":"95.592","OBJECT_ID":"2021-017Z","EPHEMERIS_TYPE":"0","OBJECT_NAME":"STARLINK-2159","TLE_LINE1":"1 47745U 21017Z   22273.79807107  .00003376  00000-0  24540-3 0  9990","EPOCH":"2022-09-30T19:09:13.340448","TLE_LINE2":"2 47745  53.0542  89.5252 0001472  90.7895 269.3263 15.06402416 88434","ELEMENT_SET_NO":"999","BSTAR":"0.00024540000000","CENTER_NAME":"EARTH","SITE":"AFETR","FILE":"3587966","TIME_SYSTEM":"UTC","MEAN_MOTION_DOT":"0.00003376","ARG_OF_PERICENTER":"90.7895","REF_FRAME":"TEME","REV_AT_EPOCH":"8843"},{"RA_OF_ASC_NODE":"89.5770","COUNTRY_CODE":"US","PERIAPSIS":"546.267","MEAN_MOTION":"15.06398487","DECAY_DATE":null,"GP_ID":"213904877","RCS_SIZE":"LARGE","NORAD_CAT_ID":"47746","CLASSIFICATION_TYPE":"U","MEAN_ELEMENT_THEORY":"SGP4","LAUNCH_DATE":"2021-03-04","MEAN_ANOMALY":"279.0083","APOAPSIS":"548.170","INCLINATION":"53.0543","SEMIMAJOR_AXIS":"6925.353","BSTAR":"0.00011497000000","CENTER_NAME":"EARTH","TIME_SYSTEM":"UTC","MEAN_MOTION_DOT":"0.00001431","FILE":"3587966","SITE":"AFETR","REV_AT_EPOCH":"8842","REF_FRAME":"TEME","ARG_OF_PERICENTER":"81.1061","ECCENTRICITY":"0.00013740","MEAN_MOTION_DDOT":"0.0000000000000","EPHEMERIS_TYPE":"0","OBJECT_ID":"2021-017AA","PERIOD":"95.592","OBJECT_TYPE":"PAYLOAD","OBJECT_NAME":"STARLINK-2160","TLE_LINE1":"1 47746U 21017AA  22273.79069977  .00001431  00000-0  11497-3 0  9993","ELEMENT_SET_NO":"999","TLE_LINE2":"2 47746  53.0543  89.5770 0001374  81.1061 279.0083 15.06398487 88420","EPOCH":"2022-09-30T18:58:36.460128"},{"RA_OF_ASC_NODE":"79.5704","COUNTRY_CODE":"US","MEAN_MOTION":"15.06396933","PERIAPSIS":"546.315","RCS_SIZE":"LARGE","DECAY_DATE":null,"GP_ID":"213905129","NORAD_CAT_ID":"47747","MEAN_ANOMALY":"292.1666","CLASSIFICATION_TYPE":"U","MEAN_ELEMENT_THEORY":"SGP4","LAUNCH_DATE":"2021-03-04","SEMIMAJOR_AXIS":"6925.358","INCLINATION":"53.0531","APOAPSIS":"548.131","BSTAR":"0.00017633000000","CENTER_NAME":"EARTH","FILE":"3587966","SITE":"AFETR","TIME_SYSTEM":"UTC","MEAN_MOTION_DOT":"0.00002346","REF_FRAME":"TEME","ARG_OF_PERICENTER":"67.9462","REV_AT_EPOCH":"8860","ECCENTRICITY":"0.00013110","MEAN_MOTION_DDOT":"0.0000000000000","PERIOD":"95.592","OBJECT_ID":"2021-017AB","OBJECT_TYPE":"PAYLOAD","EPHEMERIS_TYPE":"0","OBJECT_NAME":"STARLINK-2161","TLE_LINE1":"1 47747U 21017AB  22273.78794063  .00002346  00000-0  17633-3 0  9998","EPOCH":"2022-09-30T18:54:38.070432","TLE_LINE2":"2 47747  53.0531  79.5704 0001311  67.9462 292.1666 15.06396933 88609","ELEMENT_SET_NO":"999"},{"INCLINATION":"53.0543","APOAPSIS":"548.327","SEMIMAJOR_AXIS":"6925.340","NORAD_CAT_ID":"47748","LAUNCH_DATE":"2021-03-04","MEAN_ELEMENT_THEORY":"SGP4","CLASSIFICATION_TYPE":"U","MEAN_ANOMALY":"292.6689","PERIAPSIS":"546.082","MEAN_MOTION":"15.06402950","GP_ID":"213905357","DECAY_DATE":null,"RCS_SIZE":"LARGE","RA_OF_ASC_NODE":"79.3099","COUNTRY_CODE":"US","OBJECT_NAME":"STARLINK-2162","TLE_LINE1":"1 47748U 21017AC  22273.84690499  .00002201  00000-0  16660-3 0  9993","TLE_LINE2":"2 47748  53.0543  79.3099 0001621  67.4471 292.6689 15.06402950 88581","ELEMENT_SET_NO":"999","EPOCH":"2022-09-30T20:19:32.591136","MEAN_MOTION_DDOT":"0.0000000000000","ECCENTRICITY":"0.00016210","EPHEMERIS_TYPE":"0","OBJECT_TYPE":"PAYLOAD","PERIOD":"95.592","OBJECT_ID":"2021-017AC","MEAN_MOTION_DOT":"0.00002201","TIME_SYSTEM":"UTC","SITE":"AFETR","FILE":"3587966","REV_AT_EPOCH":"8858","REF_FRAME":"TEME","ARG_OF_PERICENTER":"67.4471","BSTAR":"0.00016660000000","CENTER_NAME":"EARTH"},{"TLE_LINE1":"1 47749U 21017AD  22273.86165884  .00000993  00000-0  85577-4 0  9991","OBJECT_NAME":"STARLINK-2163","TLE_LINE2":"2 47749  53.0551  79.2514 0001603  83.0669 277.0502 15.06397113 88580","ELEMENT_SET_NO":"999","EPOCH":"2022-09-30T20:40:47.323776","ECCENTRICITY":"0.00016030","MEAN_MOTION_DDOT":"0.0000000000000","EPHEMERIS_TYPE":"0","PERIOD":"95.592","OBJECT_ID":"2021-017AD","OBJECT_TYPE":"PAYLOAD","TIME_SYSTEM":"UTC","MEAN_MOTION_DOT":"0.00000993","FILE":"3587966","SITE":"AFETR","REV_AT_EPOCH":"8858","ARG_OF_PERICENTER":"83.0669","REF_FRAME":"TEME","BSTAR":"0.00008557700000","CENTER_NAME":"EARTH","INCLINATION":"53.0551","APOAPSIS":"548.333","SEMIMAJOR_AXIS":"6925.357","NORAD_CAT_ID":"47749","CLASSIFICATION_TYPE":"U","LAUNCH_DATE":"2021-03-04","MEAN_ELEMENT_THEORY":"SGP4","MEAN_ANOMALY":"277.0502","PERIAPSIS":"546.112","MEAN_MOTION":"15.06397113","DECAY_DATE":null,"GP_ID":"213904128","RCS_SIZE":"MEDIUM","RA_OF_ASC_NODE":"79.2514","COUNTRY_CODE":"US"},{"PERIOD":"95.592","OBJECT_ID":"2021-017AE","OBJECT_TYPE":"PAYLOAD","EPHEMERIS_TYPE":"0","ECCENTRICITY":"0.00012510","MEAN_MOTION_DDOT":"0.0000000000000","EPOCH":"2022-09-30T20:08:56.393376","ELEMENT_SET_NO":"999","TLE_LINE2":"2 47750  53.0524  79.3408 0001251  68.0896 292.0226 15.06400611 88587","TLE_LINE1":"1 47750U 21017AE  22273.83954159  .00001909  00000-0  14701-3 0  9999","OBJECT_NAME":"STARLINK-2164","CENTER_NAME":"EARTH","BSTAR":"0.00014701000000","REF_FRAME":"TEME","ARG_OF_PERICENTER":"68.0896","REV_AT_EPOCH":"8858","FILE":"3587966","SITE":"AFETR","TIME_SYSTEM":"UTC","MEAN_MOTION_DOT":"0.00001909","MEAN_ANOMALY":"292.0226","CLASSIFICATION_TYPE":"U","LAUNCH_DATE":"2021-03-04","MEAN_ELEMENT_THEORY":"SGP4","NORAD_CAT_ID":"47750","SEMIMAJOR_AXIS":"6925.347","INCLINATION":"53.0524","APOAPSIS":"548.078","COUNTRY_CODE":"US","RA_OF_ASC_NODE":"79.3408","RCS_SIZE":"LARGE","DECAY_DATE":null,"GP_ID":"213904378","MEAN_MOTION":"15.06400611","PERIAPSIS":"546.345"},{"CENTER_NAME":"EARTH","BSTAR":"0.00000587240000","REF_FRAME":"TEME","ARG_OF_PERICENTER":"47.5761","REV_AT_EPOCH":"8872","FILE":"3587966","SITE":"AFETR","MEAN_MOTION_DOT":"-0.00000194","TIME_SYSTEM":"UTC","PERIOD":"95.593","OBJECT_ID":"2021-017AF","OBJECT_TYPE":"PAYLOAD","EPHEMERIS_TYPE":"0","ECCENTRICITY":"0.00015740","MEAN_MOTION_DDOT":"0.0000000000000","EPOCH":"2022-09-30T19:17:12.330816","TLE_LINE2":"2 47751  53.0562  69.5107 0001574  47.5761 312.5361 15.06390259 88728","ELEMENT_SET_NO":"999","TLE_LINE1":"1 47751U 21017AF  22273.80361494 -.00000194  00000-0  58724-5 0  9992","OBJECT_NAME":"STARLINK-2168","COUNTRY_CODE":"US","RA_OF_ASC_NODE":"69.5107","RCS_SIZE":"LARGE","DECAY_DATE":null,"GP_ID":"213905629","MEAN_MOTION":"15.06390259","PERIAPSIS":"546.153","MEAN_ANOMALY":"312.5361","CLASSIFICATION_TYPE":"U","MEAN_ELEMENT_THEORY":"SGP4","LAUNCH_DATE":"2021-03-04","NORAD_CAT_ID":"47751","SEMIMAJOR_AXIS":"6925.378","APOAPSIS":"548.333","INCLINATION":"53.0562"}];
